[{"OBJECT_NAME":"ONEWEB-0574","OBJECT_ID":"2023-043T","EPOCH":"2026-01-24T05:13:17.347296","MEAN_MOTION":13.21826885,"ECCENTRICITY":0.00016895,"INCLINATION":87.9211,"RA_OF_ASC_NODE":272.6833,"ARG_OF_PERICENTER":73.8552,"MEAN_ANOMALY":286.2768,"EPHEMERIS_TYPE":0,"CLASSIFICATION_TYPE":"U","NORAD_CAT_ID":56063,"ELEMENT_SET_NO":999,"REV_AT_EPOCH":13925,"BSTAR":0.00017402704,"MEAN_MOTION_DOT":8.5e-7,"MEAN_MOTION_DDOT":0},{"OBJECT_NAME":"ONEWEB-0575","OBJECT_ID":"2023-043U","EPOCH":"2026-01-24T03:24:59.117760","MEAN_MOTION":13.1659564,"ECCENTRICITY":0.0001914,"INCLINATION":87.9015,"RA_OF_ASC_NODE":257.4474,"ARG_OF_PERICENTER":76.2217,"MEAN_ANOMALY":283.9127,"EPHEMERIS_TYPE":0,"CLASSIFICATION_TYPE":"U","NORAD_CAT_ID":56064,"ELEMENT_SET_NO":999,"REV_AT_EPOCH":14001,"BSTAR":4.4928673e-5,"MEAN_MOTION_DOT":3.0e-7,"MEAN_MOTION_DDOT":0},{"OBJECT_NAME":"ONEWEB-0576","OBJECT_ID":"2023-043V","EPOCH":"2026-01-24T04:47:03.695712","MEAN_MOTION":13.16596981,"ECCENTRICITY":0.00017257,"INCLINATION":87.902,"RA_OF_ASC_NODE":257.4386,"ARG_OF_PERICENTER":78.231,"MEAN_ANOMALY":281.9015,"EPHEMERIS_TYPE":0,"CLASSIFICATION_TYPE":"U","NORAD_CAT_ID":56065,"ELEMENT_SET_NO":999,"REV_AT_EPOCH":14001,"BSTAR":0.00010954012,"MEAN_MOTION_DOT":5.5e-7,"MEAN_MOTION_DDOT":0},{"OBJECT_NAME":"ONEWEB-0577","OBJECT_ID":"2023-043W","EPOCH":"2026-01-24T03:06:44.794368","MEAN_MOTION":13.1659569,"ECCENTRICITY":0.00021678,"INCLINATION":87.9021,"RA_OF_ASC_NODE":257.4516,"ARG_OF_PERICENTER":65.7894,"MEAN_ANOMALY":294.3464,"EPHEMERIS_TYPE":0,"CLASSIFICATION_TYPE":"U","NORAD_CAT_ID":56066,"ELEMENT_SET_NO":999,"REV_AT_EPOCH":14003,"BSTAR":-6.3178109e-5,"MEAN_MOTION_DOT":-1.1e-7,"MEAN_MOTION_DDOT":0},{"OBJECT_NAME":"ONEWEB-0578","OBJECT_ID":"2023-043X","EPOCH":"2026-01-24T04:54:18.650592","MEAN_MOTION":13.21828959,"ECCENTRICITY":0.00017603,"INCLINATION":87.921,"RA_OF_ASC_NODE":272.6959,"ARG_OF_PERICENTER":82.9847,"MEAN_ANOMALY":277.1487,"EPHEMERIS_TYPE":0,"CLASSIFICATION_TYPE":"U","NORAD_CAT_ID":56067,"ELEMENT_SET_NO":999,"REV_AT_EPOCH":13921,"BSTAR":5.1621378e-5,"MEAN_MOTION_DOT":3.4e-7,"MEAN_MOTION_DDOT":0},{"OBJECT_NAME":"ONEWEB-0579","OBJECT_ID":"2023-043Y","EPOCH":"2026-01-24T04:40:06.492576","MEAN_MOTION":13.21826667,"ECCENTRICITY":0.00013647,"INCLINATION":87.9213,"RA_OF_ASC_NODE":272.6863,"ARG_OF_PERICENTER":70.4216,"MEAN_ANOMALY":289.7065,"EPHEMERIS_TYPE":0,"CLASSIFICATION_TYPE":"U","NORAD_CAT_ID":56068,"ELEMENT_SET_NO":999,"REV_AT_EPOCH":13922,"BSTAR":0.00015699863,"MEAN_MOTION_DOT":7.8e-7,"MEAN_MOTION_DDOT":0},{"OBJECT_NAME":"ONEWEB-0581","OBJECT_ID":"2023-043Z","EPOCH":"2026-01-24T03:15:51.918048","MEAN_MOTION":13.16595683,"ECCENTRICITY":0.00017664,"INCLINATION":87.9015,"RA_OF_ASC_NODE":257.4625,"ARG_OF_PERICENTER":68.3401,"MEAN_ANOMALY":291.7918,"EPHEMERIS_TYPE":0,"CLASSIFICATION_TYPE":"U","NORAD_CAT_ID":56069,"ELEMENT_SET_NO":999,"REV_AT_EPOCH":14000,"BSTAR":-6.6970073e-5,"MEAN_MOTION_DOT":-1.3e-7,"MEAN_MOTION_DDOT":0},{"OBJECT_NAME":"ONEWEB-0609","OBJECT_ID":"2023-043AA","EPOCH":"2026-01-24T04:58:24.437856","MEAN_MOTION":13.15550511,"ECCENTRICITY":0.0001519,"INCLINATION":87.9006,"RA_OF_ASC_NODE":287.96,"ARG_OF_PERICENTER":78.7244,"MEAN_ANOMALY":281.4057,"EPHEMERIS_TYPE":0,"CLASSIFICATION_TYPE":"U","NORAD_CAT_ID":56070,"ELEMENT_SET_NO":999,"REV_AT_EPOCH":13750,"BSTAR":-0.00010781501,"MEAN_MOTION_DOT":-2.8e-7,"MEAN_MOTION_DDOT":0},{"OBJECT_NAME":"ONEWEB-0613","OBJECT_ID":"2023-043AB","EPOCH":"2026-01-24T04:51:34.236576","MEAN_MOTION":13.15550085,"ECCENTRICITY":0.00013201,"INCLINATION":87.9,"RA_OF_ASC_NODE":287.9724,"ARG_OF_PERICENTER":73.1926,"MEAN_ANOMALY":286.9349,"EPHEMERIS_TYPE":0,"CLASSIFICATION_TYPE":"U","NORAD_CAT_ID":56071,"ELEMENT_SET_NO":999,"REV_AT_EPOCH":13750,"BSTAR":7.7745584e-5,"MEAN_MOTION_DOT":4.2e-7,"MEAN_MOTION_DDOT":0},{"OBJECT_NAME":"ONEWEB-0630","OBJECT_ID":"2023-043AC","EPOCH":"2026-01-24T04:44:43.398528","MEAN_MOTION":13.155501,"ECCENTRICITY":0.00013073,"INCLINATION":87.9,"RA_OF_ASC_NODE":287.944,"ARG_OF_PERICENTER":70.95,"MEAN_ANOMALY":289.1772,"EPHEMERIS_TYPE":0,"CLASSIFICATION_TYPE":"U","NORAD_CAT_ID":56072,"ELEMENT_SET_NO":999,"REV_AT_EPOCH":13749,"BSTAR":0.00017409119,"MEAN_MOTION_DOT":7.8e-7,"MEAN_MOTION_DDOT":0},{"OBJECT_NAME":"ONEWEB-0632","OBJECT_ID":"2023-043AD","EPOCH":"2026-01-24T04:37:52.107744","MEAN_MOTION":13.155473,"ECCENTRICITY":0.0001697,"INCLINATION":87.8997,"RA_OF_ASC_NODE":287.9617,"ARG_OF_PERICENTER":68.9173,"MEAN_ANOMALY":291.2138,"EPHEMERIS_TYPE":0,"CLASSIFICATION_TYPE":"U","NORAD_CAT_ID":56073,"ELEMENT_SET_NO":999,"REV_AT_EPOCH":13749,"BSTAR":0.00022558757,"MEAN_MOTION_DOT":9.8e-7,"MEAN_MOTION_DDOT":0},{"OBJECT_NAME":"ONEWEB-0633","OBJECT_ID":"2023-043AE","EPOCH":"2026-01-24T04:28:45.503328","MEAN_MOTION":13.15546842,"ECCENTRICITY":0.00011478,"INCLINATION":87.9005,"RA_OF_ASC_NODE":287.9275,"ARG_OF_PERICENTER":78.5089,"MEAN_ANOMALY":281.617,"EPHEMERIS_TYPE":0,"CLASSIFICATION_TYPE":"U","NORAD_CAT_ID":56074,"ELEMENT_SET_NO":999,"REV_AT_EPOCH":13747,"BSTAR":0.0001626141,"MEAN_MOTION_DOT":7.4e-7,"MEAN_MOTION_DDOT":0},{"OBJECT_NAME":"ONEWEB-0634","OBJECT_ID":"2023-043AF","EPOCH":"2026-01-24T05:57:44.075520","MEAN_MOTION":13.15550544,"ECCENTRICITY":0.00015958,"INCLINATION":87.9004,"RA_OF_ASC_NODE":287.9664,"ARG_OF_PERICENTER":87.6628,"MEAN_ANOMALY":272.4685,"EPHEMERIS_TYPE":0,"CLASSIFICATION_TYPE":"U","NORAD_CAT_ID":56075,"ELEMENT_SET_NO":999,"REV_AT_EPOCH":13747,"BSTAR":0.00044983211,"MEAN_MOTION_DOT":1.82e-6,"MEAN_MOTION_DDOT":0},{"OBJECT_NAME":"ONEWEB-0635","OBJECT_ID":"2023-043AG","EPOCH":"2026-01-24T05:50:52.604160","MEAN_MOTION":13.15551035,"ECCENTRICITY":0.00017716,"INCLINATION":87.9001,"RA_OF_ASC_NODE":287.9202,"ARG_OF_PERICENTER":68.2124,"MEAN_ANOMALY":291.9195,"EPHEMERIS_TYPE":0,"CLASSIFICATION_TYPE":"U","NORAD_CAT_ID":56076,"ELEMENT_SET_NO":999,"REV_AT_EPOCH":13750,"BSTAR":0.00051327752,"MEAN_MOTION_DOT":2.06e-6,"MEAN_MOTION_DDOT":0},{"OBJECT_NAME":"ONEWEB-0636","OBJECT_ID":"2023-043AH","EPOCH":"2026-01-24T05:39:27.773568","MEAN_MOTION":13.15548814,"ECCENTRICITY":0.00017378,"INCLINATION":87.8996,"RA_OF_ASC_NODE":287.9382,"ARG_OF_PERICENTER":69.9649,"MEAN_ANOMALY":290.1668,"EPHEMERIS_TYPE":0,"CLASSIFICATION_TYPE":"U","NORAD_CAT_ID":56077,"ELEMENT_SET_NO":999,"REV_AT_EPOCH":13748,"BSTAR":-0.00044129894,"MEAN_MOTION_DOT":-1.53e-6,"MEAN_MOTION_DDOT":0},{"OBJECT_NAME":"ONEWEB-0637","OBJECT_ID":"2023-043AJ","EPOCH":"2026-01-24T05:30:22.397760","MEAN_MOTION":13.15550346,"ECCENTRICITY":0.00019028,"INCLINATION":87.8999,"RA_OF_ASC_NODE":287.9568,"ARG_OF_PERICENTER":78.5557,"MEAN_ANOMALY":281.5787,"EPHEMERIS_TYPE":0,"CLASSIFICATION_TYPE":"U","NORAD_CAT_ID":56078,"ELEMENT_SET_NO":999,"REV_AT_EPOCH":13750,"BSTAR":-1.2238378e-5,"MEAN_MOTION_DOT":8.0e-8,"MEAN_MOTION_DDOT":0},{"OBJECT_NAME":"ONEWEB-0647","OBJECT_ID":"2023-043AK","EPOCH":"2026-01-24T05:23:30.636096","MEAN_MOTION":13.1555066,"ECCENTRICITY":0.00015722,"INCLINATION":87.8998,"RA_OF_ASC_NODE":287.9707,"ARG_OF_PERICENTER":70.5089,"MEAN_ANOMALY":289.6212,"EPHEMERIS_TYPE":0,"CLASSIFICATION_TYPE":"U","NORAD_CAT_ID":56079,"ELEMENT_SET_NO":999,"REV_AT_EPOCH":13749,"BSTAR":-4.0496412e-5,"MEAN_MOTION_DOT":-2.0e-8,"MEAN_MOTION_DDOT":0}]
