ONEWEB-0574             
1 56063U 23043T   26024.21756189  .00000085  00000+0  17403-3 0  9995
2 56063  87.9211 272.6833 0001689  73.8552 286.2768 13.21826885139258
ONEWEB-0575             
1 56064U 23043U   26024.14235090  .00000030  00000+0  44929-4 0  9995
2 56064  87.9015 257.4474 0001914  76.2217 283.9127 13.16595640140014
ONEWEB-0576             
1 56065U 23043V   26024.19934833  .00000055  00000+0  10954-3 0  9999
2 56065  87.9020 257.4386 0001725  78.2310 281.9015 13.16596981140012
ONEWEB-0577             
1 56066U 23043W   26024.12968512 -.00000011  00000+0 -63178-4 0  9995
2 56066  87.9021 257.4516 0002167  65.7894 294.3464 13.16595690140032
ONEWEB-0578             
1 56067U 23043X   26024.20438253  .00000034  00000+0  51621-4 0  9992
2 56067  87.9210 272.6959 0001760  82.9847 277.1487 13.21828959139215
ONEWEB-0579             
1 56068U 23043Y   26024.19451959  .00000078  00000+0  15700-3 0  9994
2 56068  87.9213 272.6863 0001364  70.4216 289.7065 13.21826667139221
ONEWEB-0581             
1 56069U 23043Z   26024.13601757 -.00000013  00000+0 -66970-4 0  9999
2 56069  87.9015 257.4625 0001766  68.3401 291.7918 13.16595683140000
ONEWEB-0609             
1 56070U 23043AA  26024.20722729 -.00000028  00000+0 -10782-3 0  9997
2 56070  87.9006 287.9600 0001519  78.7244 281.4057 13.15550511137500
ONEWEB-0613             
1 56071U 23043AB  26024.20247959  .00000042  00000+0  77746-4 0  9993
2 56071  87.9000 287.9724 0001320  73.1926 286.9349 13.15550085137508
ONEWEB-0630             
1 56072U 23043AC  26024.19772452  .00000078  00000+0  17409-3 0  9991
2 56072  87.9000 287.9440 0001307  70.9500 289.1772 13.15550100137493
ONEWEB-0632             
1 56073U 23043AD  26024.19296421  .00000098  00000+0  22559-3 0  9993
2 56073  87.8997 287.9617 0001697  68.9173 291.2138 13.15547300137497
ONEWEB-0633             
1 56074U 23043AE  26024.18663777  .00000074  00000+0  16261-3 0  9992
2 56074  87.9005 287.9275 0001147  78.5089 281.6170 13.15546842137479
ONEWEB-0634             
1 56075U 23043AF  26024.24842680  .00000182  00000+0  44983-3 0  9994
2 56075  87.9004 287.9664 0001595  87.6628 272.4685 13.15550544137471
ONEWEB-0635             
1 56076U 23043AG  26024.24366440  .00000206  00000+0  51328-3 0  9998
2 56076  87.9001 287.9202 0001771  68.2124 291.9195 13.15551035137501
ONEWEB-0636             
1 56077U 23043AH  26024.23573812 -.00000153  00000+0 -44130-3 0  9997
2 56077  87.8996 287.9382 0001737  69.9649 290.1668 13.15548814137489
ONEWEB-0637             
1 56078U 23043AJ  26024.22942590  .00000008  00000+0 -12238-4 0  9993
2 56078  87.8999 287.9568 0001902  78.5557 281.5787 13.15550346137509
ONEWEB-0647             
1 56079U 23043AK  26024.22466014 -.00000002  00000+0 -40496-4 0  9998
2 56079  87.8998 287.9707 0001572  70.5089 289.6212 13.15550660137498
